[Satellite]
VERSION=1.1
NAME=SL-8 R/B
NICKNAME=SL-8 R/B
TLE1=1 14484U 83111B   11059.49669721  .00007469  00000-0  22737-3 0  4552
TLE2=2 14484  82.8446   0.1592 0412283  70.3115 294.2108 14.78419564391995
